[{"OBJECT_NAME":"STARLINK-32310","OBJECT_ID":"2024-193B","EPOCH":"2026-03-09T11:19:14.073888","MEAN_MOTION":15.30197149,"ECCENTRICITY":0.00012797,"INCLINATION":53.1606,"RA_OF_ASC_NODE":91.99,"ARG_OF_PERICENTER":86.2735,"MEAN_ANOMALY":273.8412,"EPHEMERIS_TYPE":0,"CLASSIFICATION_TYPE":"U","NORAD_CAT_ID":61662,"ELEMENT_SET_NO":999,"REV_AT_EPOCH":7649,"BSTAR":4.203526e-5,"MEAN_MOTION_DOT":8.86e-6,"MEAN_MOTION_DDOT":0},{"OBJECT_NAME":"USA 22","OBJECT_ID":"1987-043A","EPOCH":"2026-03-09T12:49:38.770464","MEAN_MOTION":14.09930808,"ECCENTRICITY":0.06945592,"INCLINATION":63.291,"RA_OF_ASC_NODE":125.356,"ARG_OF_PERICENTER":106.1549,"MEAN_ANOMALY":261.7059,"EPHEMERIS_TYPE":0,"CLASSIFICATION_TYPE":"U","NORAD_CAT_ID":17997,"ELEMENT_SET_NO":999,"REV_AT_EPOCH":9242,"BSTAR":0.00062215279,"MEAN_MOTION_DOT":0.00012639,"MEAN_MOTION_DDOT":0}]
